ONEWEB-0207             
1 48242U 21031AJ  25356.35658856  .00000063  00000+0  13521-3 0  9997
2 48242  87.9010 324.9214 0001673  90.1597 269.9724 13.14503869225064
ONEWEB-0208             
1 48243U 21031AK  25356.41446448 -.00000109  00000+0 -32741-3 0  9995
2 48243  87.9000 324.9235 0001579  76.4086 283.7220 13.14501284225088
ONEWEB-0200             
1 48244U 21031AL  25356.45411633  .00000131  00000+0  31794-3 0  9998
2 48244  87.9004 324.9052 0001666  82.8726 277.2593 13.14501525225011
ONEWEB-0217             
1 48245U 21031AM  25356.31771564 -.00000148  00000+0 -43422-3 0  9997
2 48245  87.9006 324.9278 0001550  75.3537 284.7765 13.14499435224944
ONEWEB-0211             
1 48767U 21045A   25356.59291291  .00000106  00000+0  24588-3 0  9999
2 48767  87.9006 294.3560 0001670  61.5882 298.5417 13.16136870221217
ONEWEB-0223             
1 48768U 21045B   25356.58815525  .00000172  00000+0  42398-3 0  9993
2 48768  87.9010 294.4231 0001959  63.5343 296.5988 13.15548975221182
ONEWEB-0230             
1 48769U 21045C   25355.34270240  .00000061  00000+0  12826-3 0  9996
2 48769  87.9001 294.7004 0001931  80.6205 279.5143 13.15550006221284
ONEWEB-0237             
1 48770U 21045D   25356.54853019 -.00000100  00000+0 -30041-3 0  9997
2 48770  87.9004 294.4605 0001990  70.1089 290.0256 13.15549986221167
